CCSDS_OMM_VERS = 2.0
CREATION_DATE  = 
ORIGINATOR     = 

OBJECT_NAME    = STARLINK-36609
OBJECT_ID      = 2026-016X
CENTER_NAME    = EARTH
REF_FRAME      = TEME
TIME_SYSTEM    = UTC
MEAN_ELEMENT_THEORY = SGP/SGP4

EPOCH          = 2026-02-17T21:15:47.411424
MEAN_MOTION    = 15.75236010
ECCENTRICITY   = .00013382
INCLINATION    = 97.2836
RA_OF_ASC_NODE = 108.3587
ARG_OF_PERICENTER = 96.5153
MEAN_ANOMALY   = 263.6265

EPHEMERIS_TYPE = 0
CLASSIFICATION_TYPE = U
NORAD_CAT_ID   = 67582
ELEMENT_SET_NO = 999
REV_AT_EPOCH   = 368
BSTAR          = .15447682E-2
MEAN_MOTION_DOT = .237271E-2
MEAN_MOTION_DDOT = 0

CCSDS_OMM_VERS = 2.0
CREATION_DATE  = 
ORIGINATOR     = 

OBJECT_NAME    = STARLINK-36577
OBJECT_ID      = 2026-016Y
CENTER_NAME    = EARTH
REF_FRAME      = TEME
TIME_SYSTEM    = UTC
MEAN_ELEMENT_THEORY = SGP/SGP4

EPOCH          = 2026-02-17T22:02:59.614656
MEAN_MOTION    = 15.80872704
ECCENTRICITY   = .00013742
INCLINATION    = 97.2840
RA_OF_ASC_NODE = 108.4681
ARG_OF_PERICENTER = 91.2572
MEAN_ANOMALY   = 268.8854

EPHEMERIS_TYPE = 0
CLASSIFICATION_TYPE = U
NORAD_CAT_ID   = 67583
ELEMENT_SET_NO = 999
REV_AT_EPOCH   = 369
BSTAR          = .10074737E-2
MEAN_MOTION_DOT = .197786E-2
MEAN_MOTION_DDOT = 0

CCSDS_OMM_VERS = 2.0
CREATION_DATE  = 
ORIGINATOR     = 

OBJECT_NAME    = STARLINK-36419
OBJECT_ID      = 2026-016Z
CENTER_NAME    = EARTH
REF_FRAME      = TEME
TIME_SYSTEM    = UTC
MEAN_ELEMENT_THEORY = SGP/SGP4

EPOCH          = 2026-02-17T22:00:01.999584
MEAN_MOTION    = 15.75113598
ECCENTRICITY   = .00015652
INCLINATION    = 97.2843
RA_OF_ASC_NODE = 108.4710
ARG_OF_PERICENTER = 103.1119
MEAN_ANOMALY   = 251.0973

EPHEMERIS_TYPE = 0
CLASSIFICATION_TYPE = U
NORAD_CAT_ID   = 67584
ELEMENT_SET_NO = 999
REV_AT_EPOCH   = 487
BSTAR          = .57947321E-3
MEAN_MOTION_DOT = .869E-3
MEAN_MOTION_DDOT = 0

CCSDS_OMM_VERS = 2.0
CREATION_DATE  = 
ORIGINATOR     = 

OBJECT_NAME    = STARLINK-36560
OBJECT_ID      = 2026-016AA
CENTER_NAME    = EARTH
REF_FRAME      = TEME
TIME_SYSTEM    = UTC
MEAN_ELEMENT_THEORY = SGP/SGP4

EPOCH          = 2026-02-17T21:54:46.683648
MEAN_MOTION    = 15.80826023
ECCENTRICITY   = .00013519
INCLINATION    = 97.2843
RA_OF_ASC_NODE = 108.4763
ARG_OF_PERICENTER = 103.3000
MEAN_ANOMALY   = 256.8419

EPHEMERIS_TYPE = 0
CLASSIFICATION_TYPE = U
NORAD_CAT_ID   = 67585
ELEMENT_SET_NO = 999
REV_AT_EPOCH   = 369
BSTAR          = .89711368E-3
MEAN_MOTION_DOT = .175273E-2
MEAN_MOTION_DDOT = 0

CCSDS_OMM_VERS = 2.0
CREATION_DATE  = 
ORIGINATOR     = 

OBJECT_NAME    = NAVSTAR 85 (USA 581)
OBJECT_ID      = 2026-017A
CENTER_NAME    = EARTH
REF_FRAME      = TEME
TIME_SYSTEM    = UTC
MEAN_ELEMENT_THEORY = SGP/SGP4

EPOCH          = 2026-02-17T12:56:41.465184
MEAN_MOTION    = 2.00561228
ECCENTRICITY   = .0000946
INCLINATION    = 55.0081
RA_OF_ASC_NODE = 93.5564
ARG_OF_PERICENTER = 45.2724
MEAN_ANOMALY   = 314.8210

EPHEMERIS_TYPE = 0
CLASSIFICATION_TYPE = U
NORAD_CAT_ID   = 67588
ELEMENT_SET_NO = 999
REV_AT_EPOCH   = 42921
BSTAR          = 0
MEAN_MOTION_DOT = .28E-6
MEAN_MOTION_DDOT = 0

CCSDS_OMM_VERS = 2.0
CREATION_DATE  = 
ORIGINATOR     = 

OBJECT_NAME    = STARLINK-36641
OBJECT_ID      = 2026-018A
CENTER_NAME    = EARTH
REF_FRAME      = TEME
TIME_SYSTEM    = UTC
MEAN_ELEMENT_THEORY = SGP/SGP4

EPOCH          = 2026-02-18T02:49:19.140960
MEAN_MOTION    = 15.75217195
ECCENTRICITY   = .0001145
INCLINATION    = 97.2840
RA_OF_ASC_NODE = 113.9115
ARG_OF_PERICENTER = 85.1838
MEAN_ANOMALY   = 274.9558

EPHEMERIS_TYPE = 0
CLASSIFICATION_TYPE = U
NORAD_CAT_ID   = 67589
ELEMENT_SET_NO = 999
REV_AT_EPOCH   = 422
BSTAR          = .5521E-3
MEAN_MOTION_DOT = .83123E-3
MEAN_MOTION_DDOT = 0

CCSDS_OMM_VERS = 2.0
CREATION_DATE  = 
ORIGINATOR     = 

OBJECT_NAME    = STARLINK-36376
OBJECT_ID      = 2026-018B
CENTER_NAME    = EARTH
REF_FRAME      = TEME
TIME_SYSTEM    = UTC
MEAN_ELEMENT_THEORY = SGP/SGP4

EPOCH          = 2026-02-18T04:00:01.999584
MEAN_MOTION    = 15.76553533
ECCENTRICITY   = .0001261
INCLINATION    = 97.2841
RA_OF_ASC_NODE = 114.0068
ARG_OF_PERICENTER = 77.5396
MEAN_ANOMALY   = 301.9967

EPHEMERIS_TYPE = 0
CLASSIFICATION_TYPE = U
NORAD_CAT_ID   = 67590
ELEMENT_SET_NO = 999
REV_AT_EPOCH   = 425
BSTAR          = -.11928E-1
MEAN_MOTION_DOT = -.1675046E-1
MEAN_MOTION_DDOT = 0

CCSDS_OMM_VERS = 2.0
CREATION_DATE  = 
ORIGINATOR     = 

OBJECT_NAME    = STARLINK-36391
OBJECT_ID      = 2026-018C
CENTER_NAME    = EARTH
REF_FRAME      = TEME
TIME_SYSTEM    = UTC
MEAN_ELEMENT_THEORY = SGP/SGP4

EPOCH          = 2026-02-18T03:51:39.349440
MEAN_MOTION    = 15.80859302
ECCENTRICITY   = .0000967
INCLINATION    = 97.2841
RA_OF_ASC_NODE = 114.0061
ARG_OF_PERICENTER = 20.1001
MEAN_ANOMALY   = 340.0305

EPHEMERIS_TYPE = 0
CLASSIFICATION_TYPE = U
NORAD_CAT_ID   = 67591
ELEMENT_SET_NO = 999
REV_AT_EPOCH   = 423
BSTAR          = .66886E-3
MEAN_MOTION_DOT = .130159E-2
MEAN_MOTION_DDOT = 0

CCSDS_OMM_VERS = 2.0
CREATION_DATE  = 
ORIGINATOR     = 

OBJECT_NAME    = STARLINK-36603
OBJECT_ID      = 2026-018D
CENTER_NAME    = EARTH
REF_FRAME      = TEME
TIME_SYSTEM    = UTC
MEAN_ELEMENT_THEORY = SGP/SGP4

EPOCH          = 2026-02-18T03:50:46.425120
MEAN_MOTION    = 15.79959628
ECCENTRICITY   = .0000292
INCLINATION    = 97.2840
RA_OF_ASC_NODE = 114.0068
ARG_OF_PERICENTER = 43.2217
MEAN_ANOMALY   = 316.9074

EPHEMERIS_TYPE = 0
CLASSIFICATION_TYPE = U
NORAD_CAT_ID   = 67592
ELEMENT_SET_NO = 999
REV_AT_EPOCH   = 423
BSTAR          = -.39793E-2
MEAN_MOTION_DOT = -.678543E-2
MEAN_MOTION_DDOT = 0

CCSDS_OMM_VERS = 2.0
CREATION_DATE  = 
ORIGINATOR     = 

OBJECT_NAME    = STARLINK-36634
OBJECT_ID      = 2026-018E
CENTER_NAME    = EARTH
REF_FRAME      = TEME
TIME_SYSTEM    = UTC
MEAN_ELEMENT_THEORY = SGP/SGP4

EPOCH          = 2026-02-18T03:48:55.949760
MEAN_MOTION    = 15.80861680
ECCENTRICITY   = .0001169
INCLINATION    = 97.2840
RA_OF_ASC_NODE = 114.0085
ARG_OF_PERICENTER = 55.0733
MEAN_ANOMALY   = 305.0645

EPHEMERIS_TYPE = 0
CLASSIFICATION_TYPE = U
NORAD_CAT_ID   = 67593
ELEMENT_SET_NO = 999
REV_AT_EPOCH   = 423
BSTAR          = .69662E-3
MEAN_MOTION_DOT = .135669E-2
MEAN_MOTION_DDOT = 0

CCSDS_OMM_VERS = 2.0
CREATION_DATE  = 
ORIGINATOR     = 

OBJECT_NAME    = STARLINK-36638
OBJECT_ID      = 2026-018F
CENTER_NAME    = EARTH
REF_FRAME      = TEME
TIME_SYSTEM    = UTC
MEAN_ELEMENT_THEORY = SGP/SGP4

EPOCH          = 2026-02-18T03:47:20.010336
MEAN_MOTION    = 15.80854645
ECCENTRICITY   = .0001555
INCLINATION    = 97.2842
RA_OF_ASC_NODE = 114.0100
ARG_OF_PERICENTER = 33.2352
MEAN_ANOMALY   = 326.9014

EPHEMERIS_TYPE = 0
CLASSIFICATION_TYPE = U
NORAD_CAT_ID   = 67594
ELEMENT_SET_NO = 999
REV_AT_EPOCH   = 423
BSTAR          = .4814E-3
MEAN_MOTION_DOT = .93225E-3
MEAN_MOTION_DDOT = 0

CCSDS_OMM_VERS = 2.0
CREATION_DATE  = 
ORIGINATOR     = 

OBJECT_NAME    = STARLINK-36628
OBJECT_ID      = 2026-018G
CENTER_NAME    = EARTH
REF_FRAME      = TEME
TIME_SYSTEM    = UTC
MEAN_ELEMENT_THEORY = SGP/SGP4

EPOCH          = 2026-02-18T04:00:01.999584
MEAN_MOTION    = 15.75213137
ECCENTRICITY   = .0000948
INCLINATION    = 97.2847
RA_OF_ASC_NODE = 113.9940
ARG_OF_PERICENTER = 89.1202
MEAN_ANOMALY   = 259.2841

EPHEMERIS_TYPE = 0
CLASSIFICATION_TYPE = U
NORAD_CAT_ID   = 67595
ELEMENT_SET_NO = 999
REV_AT_EPOCH   = 420
BSTAR          = -.42645E-3
MEAN_MOTION_DOT = -.63329E-3
MEAN_MOTION_DDOT = 0

