STARLINK-36609          
1 67582U 26016X   26048.88596541  .00237271  00000+0  15448-2 0  9994
2 67582  97.2836 108.3587 0001338  96.5153 263.6265 15.75236010  3688
STARLINK-36577          
1 67583U 26016Y   26048.91874554  .00197786  00000+0  10075-2 0  9999
2 67583  97.2840 108.4681 0001374  91.2572 268.8854 15.80872704  3691
STARLINK-36419          
1 67584U 26016Z   26048.91668981  .00086900  00000+0  57947-3 0  9990
2 67584  97.2843 108.4710 0001565 103.1119 251.0973 15.75113598  4870
STARLINK-36560          
1 67585U 26016AA  26048.91304032  .00175273  00000+0  89711-3 0  9991
2 67585  97.2843 108.4763 0001351 103.3000 256.8419 15.80826023  3690
NAVSTAR 85 (USA 581)    
1 67588U 26017A   26048.53936881  .00000028  00000+0  00000+0 0  9991
2 67588  55.0081  93.5564 0000946  45.2724 314.8210  2.00561228429213
STARLINK-36641          
1 67589U 26018A   26049.11758265  .00083123  00000+0  55210-3 0  9990
2 67589  97.2840 113.9115 0001145  85.1838 274.9558 15.75217195  4223
STARLINK-36376          
1 67590U 26018B   26049.16668981 -.01675046  00000+0 -11928-1 0  9992
2 67590  97.2841 114.0068 0001261  77.5396 301.9967 15.76553533  4256
STARLINK-36391          
1 67591U 26018C   26049.16087210  .00130159  00000+0  66886-3 0  9996
2 67591  97.2841 114.0061 0000967  20.1001 340.0305 15.80859302  4235
STARLINK-36603          
1 67592U 26018D   26049.16025955 -.00678543  00000+0 -39793-2 0  9997
2 67592  97.2840 114.0068 0000292  43.2217 316.9074 15.79959628  4233
STARLINK-36634          
1 67593U 26018E   26049.15898090  .00135669  00000+0  69662-3 0  9999
2 67593  97.2840 114.0085 0001169  55.0733 305.0645 15.80861680  4236
STARLINK-36638          
1 67594U 26018F   26049.15787049  .00093225  00000+0  48140-3 0  9990
2 67594  97.2842 114.0100 0001555  33.2352 326.9014 15.80854645  4236
STARLINK-36628          
1 67595U 26018G   26049.16668981 -.00063329  00000+0 -42645-3 0  9993
2 67595  97.2847 113.9940 0000948  89.1202 259.2841 15.75213137  4203
